{
  "type": "FeatureCollection",
  "features": [
    {
      "type": "Feature",
      "properties": {
        "norad_id": 34350,
        "name": "IRIDIUM 33 DEB",
        "group": "iridium-33-debris",
        "lat": 9.507168483855661,
        "lon": -179.65048815639716,
        "alt_km": 731.547504884491,
        "timestamp": "2025-12-16T23:36:36.583206+00:00",
        "meta_object_name": "IRIDIUM 33 DEB",
        "meta_object_id": "1997-051ES",
        "meta_epoch": "2025-12-16T01:28:29.318880",
        "meta_mean_motion": 14.45394432,
        "meta_eccentricity": 0.00231047,
        "meta_inclination": 86.3274,
        "meta_ra_of_asc_node": 1.3659,
        "meta_arg_of_pericenter": 124.9208,
        "meta_mean_anomaly": 289.1497,
        "meta_ephemeris_type": 0,
        "meta_classification_type": "U",
        "meta_norad_cat_id": 34350,
        "meta_element_set_no": 999,
        "meta_rev_at_epoch": 88341,
        "meta_bstar": 0.00029886343,
        "meta_mean_motion_dot": 1.074e-05,
        "meta_mean_motion_ddot": 0,
        "tle_line1": "1 34350U 97051ES  25350.06145045  .00001074  00000+0  29886-3 0  9994",
        "tle_line2": "2 34350  86.3274   1.3659 0023104 124.9208 289.1497 14.45394432883410"
      },
      "geometry": {
        "type": "Point",
        "coordinates": [
          -179.65048815639716,
          9.507168483855661
        ]
      }
    },
    {
      "type": "Feature",
      "properties": {
        "norad_id": 34366,
        "name": "IRIDIUM 33 DEB",
        "group": "iridium-33-debris",
        "lat": -86.28499720524388,
        "lon": -30.40174764638693,
        "alt_km": 732.8820236820757,
        "timestamp": "2025-12-16T23:36:36.583216+00:00",
        "meta_object_name": "IRIDIUM 33 DEB",
        "meta_object_id": "1997-051FJ",
        "meta_epoch": "2025-12-16T04:27:03.913344",
        "meta_mean_motion": 14.5408801,
        "meta_eccentricity": 0.00226911,
        "meta_inclination": 86.3701,
        "meta_ra_of_asc_node": 47.8151,
        "meta_arg_of_pericenter": 128.8458,
        "meta_mean_anomaly": 285.6209,
        "meta_ephemeris_type": 0,
        "meta_classification_type": "U",
        "meta_norad_cat_id": 34366,
        "meta_element_set_no": 999,
        "meta_rev_at_epoch": 88232,
        "meta_bstar": 0.00066965836,
        "meta_mean_motion_dot": 2.857e-05,
        "meta_mean_motion_ddot": 0,
        "tle_line1": "1 34366U 97051FJ  25350.18546196  .00002857  00000+0  66966-3 0  9996",
        "tle_line2": "2 34366  86.3701  47.8151 0022691 128.8458 285.6209 14.54088010882327"
      },
      "geometry": {
        "type": "Point",
        "coordinates": [
          -30.40174764638693,
          -86.28499720524388
        ]
      }
    },
    {
      "type": "Feature",
      "properties": {
        "norad_id": 34375,
        "name": "IRIDIUM 33 DEB",
        "group": "iridium-33-debris",
        "lat": -5.854558704027467,
        "lon": -179.37786017963035,
        "alt_km": 871.6568542394352,
        "timestamp": "2025-12-16T23:36:36.583232+00:00",
        "meta_object_name": "IRIDIUM 33 DEB",
        "meta_object_id": "1997-051FT",
        "meta_epoch": "2025-12-16T07:31:38.392320",
        "meta_mean_motion": 14.17998956,
        "meta_eccentricity": 0.01035094,
        "meta_inclination": 86.4323,
        "meta_ra_of_asc_node": 181.2588,
        "meta_arg_of_pericenter": 115.5356,
        "meta_mean_anomaly": 61.071,
        "meta_ephemeris_type": 0,
        "meta_classification_type": "U",
        "meta_norad_cat_id": 34375,
        "meta_element_set_no": 999,
        "meta_rev_at_epoch": 86762,
        "meta_bstar": 0.00040162427,
        "meta_mean_motion_dot": 8.86e-06,
        "meta_mean_motion_ddot": 0,
        "tle_line1": "1 34375U 97051FT  25350.31363880  .00000886  00000+0  40162-3 0  9998",
        "tle_line2": "2 34375  86.4323 181.2588 0103509 115.5356  61.0710 14.17998956867620"
      },
      "geometry": {
        "type": "Point",
        "coordinates": [
          -179.37786017963035,
          -5.854558704027467
        ]
      }
    },
    {
      "type": "Feature",
      "properties": {
        "norad_id": 34376,
        "name": "IRIDIUM 33 DEB",
        "group": "iridium-33-debris",
        "lat": -31.844205284320843,
        "lon": 2.32771772855347,
        "alt_km": 710.2882586421201,
        "timestamp": "2025-12-16T23:36:36.583243+00:00",
        "meta_object_name": "IRIDIUM 33 DEB",
        "meta_object_id": "1997-051FU",
        "meta_epoch": "2025-12-16T00:46:08.937696",
        "meta_mean_motion": 14.62616251,
        "meta_eccentricity": 0.00275533,
        "meta_inclination": 86.2982,
        "meta_ra_of_asc_node": 5.06,
        "meta_arg_of_pericenter": 155.7384,
        "meta_mean_anomaly": 204.5132,
        "meta_ephemeris_type": 0,
        "meta_classification_type": "U",
        "meta_norad_cat_id": 34376,
        "meta_element_set_no": 999,
        "meta_rev_at_epoch": 88055,
        "meta_bstar": 0.00097576326,
        "meta_mean_motion_dot": 5.007e-05,
        "meta_mean_motion_ddot": 0,
        "tle_line1": "1 34376U 97051FU  25350.03204789  .00005007  00000+0  97576-3 0  9991",
        "tle_line2": "2 34376  86.2982   5.0600 0027553 155.7384 204.5132 14.62616251880553"
      },
      "geometry": {
        "type": "Point",
        "coordinates": [
          2.32771772855347,
          -31.844205284320843
        ]
      }
    },
    {
      "type": "Feature",
      "properties": {
        "norad_id": 34486,
        "name": "IRIDIUM 33 DEB",
        "group": "iridium-33-debris",
        "lat": -27.322823728071487,
        "lon": 8.19874899025382,
        "alt_km": 591.0985731306037,
        "timestamp": "2025-12-16T23:36:36.583267+00:00",
        "meta_object_name": "IRIDIUM 33 DEB",
        "meta_object_id": "1997-051GB",
        "meta_epoch": "2025-12-16T01:30:44.745696",
        "meta_mean_motion": 14.95955927,
        "meta_eccentricity": 0.00139106,
        "meta_inclination": 86.3931,
        "meta_ra_of_asc_node": 10.4913,
        "meta_arg_of_pericenter": 103.495,
        "meta_mean_anomaly": 314.0445,
        "meta_ephemeris_type": 0,
        "meta_classification_type": "U",
        "meta_norad_cat_id": 34486,
        "meta_element_set_no": 999,
        "meta_rev_at_epoch": 89036,
        "meta_bstar": 0.0014513115,
        "meta_mean_motion_dot": 0.00016332,
        "meta_mean_motion_ddot": 0,
        "tle_line1": "1 34486U 97051GB  25350.06301789  .00016332  00000+0  14513-2 0  9996",
        "tle_line2": "2 34486  86.3931  10.4913 0013910 103.4950 314.0445 14.95955927890364"
      },
      "geometry": {
        "type": "Point",
        "coordinates": [
          8.19874899025382,
          -27.322823728071487
        ]
      }
    },
    {
      "type": "Feature",
      "properties": {
        "norad_id": 34487,
        "name": "IRIDIUM 33 DEB",
        "group": "iridium-33-debris",
        "lat": -83.48255465591552,
        "lon": -135.41121023112734,
        "alt_km": 775.5981932202012,
        "timestamp": "2025-12-16T23:36:36.583280+00:00",
        "meta_object_name": "IRIDIUM 33 DEB",
        "meta_object_id": "1997-051GC",
        "meta_epoch": "2025-12-16T07:28:55.639776",
        "meta_mean_motion": 14.43220771,
        "meta_eccentricity": 0.0033014,
        "meta_inclination": 86.3434,
        "meta_ra_of_asc_node": 10.8395,
        "meta_arg_of_pericenter": 117.2406,
        "meta_mean_anomaly": 257.9324,
        "meta_ephemeris_type": 0,
        "meta_classification_type": "U",
        "meta_norad_cat_id": 34487,
        "meta_element_set_no": 999,
        "meta_rev_at_epoch": 88300,
        "meta_bstar": 0.00017545097,
        "meta_mean_motion_dot": 6.14e-06,
        "meta_mean_motion_ddot": 0,
        "tle_line1": "1 34487U 97051GC  25350.31175509  .00000614  00000+0  17545-3 0  9999",
        "tle_line2": "2 34487  86.3434  10.8395 0033014 117.2406 257.9324 14.43220771883006"
      },
      "geometry": {
        "type": "Point",
        "coordinates": [
          -135.41121023112734,
          -83.48255465591552
        ]
      }
    },
    {
      "type": "Feature",
      "properties": {
        "norad_id": 34488,
        "name": "IRIDIUM 33 DEB",
        "group": "iridium-33-debris",
        "lat": 63.47710343086727,
        "lon": 116.30573343243525,
        "alt_km": 465.9846852680075,
        "timestamp": "2025-12-16T23:36:36.583291+00:00",
        "meta_object_name": "IRIDIUM 33 DEB",
        "meta_object_id": "1997-051GD",
        "meta_epoch": "2025-12-16T07:24:42.620832",
        "meta_mean_motion": 15.30313162,
        "meta_eccentricity": 0.00121845,
        "meta_inclination": 86.3227,
        "meta_ra_of_asc_node": 304.0447,
        "meta_arg_of_pericenter": 45.675,
        "meta_mean_anomaly": 314.5495,
        "meta_ephemeris_type": 0,
        "meta_classification_type": "U",
        "meta_norad_cat_id": 34488,
        "meta_element_set_no": 999,
        "meta_rev_at_epoch": 89294,
        "meta_bstar": 0.0033384649,
        "meta_mean_motion_dot": 0.00099188,
        "meta_mean_motion_ddot": 0,
        "tle_line1": "1 34488U 97051GD  25350.30882663  .00099188  00000+0  33385-2 0  9998",
        "tle_line2": "2 34488  86.3227 304.0447 0012184  45.6750 314.5495 15.30313162892940"
      },
      "geometry": {
        "type": "Point",
        "coordinates": [
          116.30573343243525,
          63.47710343086727
        ]
      }
    }
  ]
}